<?xml version="1.0" encoding="UTF-8"?>
<kml xmlns="http://www.opengis.net/kml/2.2">
  <Document>
    <name>Ranh giới Cụm công nghiệp Quang Kim số 1, số 2</name>
    <description><![CDATA[
      Theo Phụ lục kèm Báo cáo của UBND xã Bát Xát, tỉnh Lào Cai (2026).
      Hệ tọa độ gốc: VN-2000, múi chiếu 3°, kinh tuyến trục 104°45'.
      Đã chuyển sang WGS-84 để hiển thị trên Google Earth / Google Maps.
    ]]></description>

    <Style id="qk1Style">
      <LineStyle>
        <color>ff0000ff</color>
        <width>3</width>
      </LineStyle>
      <PolyStyle>
        <color>4d0000ff</color>
      </PolyStyle>
    </Style>

    <Style id="qk2Style">
      <LineStyle>
        <color>ffff8000</color>
        <width>3</width>
      </LineStyle>
      <PolyStyle>
        <color>4dff8000</color>
      </PolyStyle>
    </Style>

    <Style id="ptStyle">
      <IconStyle>
        <scale>0.6</scale>
        <Icon><href>http://maps.google.com/mapfiles/kml/shapes/placemark_circle.png</href></Icon>
      </IconStyle>
      <LabelStyle>
        <scale>0.7</scale>
      </LabelStyle>
    </Style>

    <Folder>
      <name>CCN Quang Kim số 1 (~57.29 ha)</name>
      <Placemark>
        <name>Ranh giới CCN Quang Kim 1</name>
        <description>Diện tích tính từ tọa độ: 57.29 ha</description>
        <styleUrl>#qk1Style</styleUrl>
        <Polygon>
          <tessellate>1</tessellate>
          <outerBoundaryIs>
            <LinearRing>
              <coordinates>103.9076514,22.5428763,0 103.9076130,22.5428897,0 103.9028852,22.5408249,0 103.9028540,22.5407462,0 103.9025607,22.5402084,0 103.9012676,22.5397035,0 103.9019553,22.5389468,0 103.9025713,22.5380981,0 103.9034462,22.5364886,0 103.9036718,22.5359299,0 103.9037625,22.5353391,0 103.9038360,22.5332869,0 103.9039317,22.5328993,0 103.9059520,22.5338398,0 103.9065347,22.5341130,0 103.9088189,22.5351839,0 103.9106927,22.5362874,0 103.9107120,22.5363692,0 103.9096442,22.5379095,0 103.9094605,22.5382362,0 103.9092728,22.5386837,0 103.9084715,22.5413107,0 103.9083550,22.5415765,0 103.9076514,22.5428763,0</coordinates>
            </LinearRing>
          </outerBoundaryIs>
        </Polygon>
      </Placemark>
      <Folder>
        <name>Điểm góc ranh QK1</name>
        <visibility>0</visibility>
        <Placemark>
          <name>1</name>
          <styleUrl>#ptStyle</styleUrl>
          <Point><coordinates>103.9076514,22.5428763,0</coordinates></Point>
        </Placemark>
        <Placemark>
          <name>2</name>
          <styleUrl>#ptStyle</styleUrl>
          <Point><coordinates>103.9076130,22.5428897,0</coordinates></Point>
        </Placemark>
        <Placemark>
          <name>3</name>
          <styleUrl>#ptStyle</styleUrl>
          <Point><coordinates>103.9028852,22.5408249,0</coordinates></Point>
        </Placemark>
        <Placemark>
          <name>4</name>
          <styleUrl>#ptStyle</styleUrl>
          <Point><coordinates>103.9028540,22.5407462,0</coordinates></Point>
        </Placemark>
        <Placemark>
          <name>5</name>
          <styleUrl>#ptStyle</styleUrl>
          <Point><coordinates>103.9025607,22.5402084,0</coordinates></Point>
        </Placemark>
        <Placemark>
          <name>6</name>
          <styleUrl>#ptStyle</styleUrl>
          <Point><coordinates>103.9012676,22.5397035,0</coordinates></Point>
        </Placemark>
        <Placemark>
          <name>7</name>
          <styleUrl>#ptStyle</styleUrl>
          <Point><coordinates>103.9019553,22.5389468,0</coordinates></Point>
        </Placemark>
        <Placemark>
          <name>8</name>
          <styleUrl>#ptStyle</styleUrl>
          <Point><coordinates>103.9025713,22.5380981,0</coordinates></Point>
        </Placemark>
        <Placemark>
          <name>9</name>
          <styleUrl>#ptStyle</styleUrl>
          <Point><coordinates>103.9034462,22.5364886,0</coordinates></Point>
        </Placemark>
        <Placemark>
          <name>10</name>
          <styleUrl>#ptStyle</styleUrl>
          <Point><coordinates>103.9036718,22.5359299,0</coordinates></Point>
        </Placemark>
        <Placemark>
          <name>11</name>
          <styleUrl>#ptStyle</styleUrl>
          <Point><coordinates>103.9037625,22.5353391,0</coordinates></Point>
        </Placemark>
        <Placemark>
          <name>12</name>
          <styleUrl>#ptStyle</styleUrl>
          <Point><coordinates>103.9038360,22.5332869,0</coordinates></Point>
        </Placemark>
        <Placemark>
          <name>13</name>
          <styleUrl>#ptStyle</styleUrl>
          <Point><coordinates>103.9039317,22.5328993,0</coordinates></Point>
        </Placemark>
        <Placemark>
          <name>14</name>
          <styleUrl>#ptStyle</styleUrl>
          <Point><coordinates>103.9059520,22.5338398,0</coordinates></Point>
        </Placemark>
        <Placemark>
          <name>15</name>
          <styleUrl>#ptStyle</styleUrl>
          <Point><coordinates>103.9065347,22.5341130,0</coordinates></Point>
        </Placemark>
        <Placemark>
          <name>16</name>
          <styleUrl>#ptStyle</styleUrl>
          <Point><coordinates>103.9088189,22.5351839,0</coordinates></Point>
        </Placemark>
        <Placemark>
          <name>17</name>
          <styleUrl>#ptStyle</styleUrl>
          <Point><coordinates>103.9106927,22.5362874,0</coordinates></Point>
        </Placemark>
        <Placemark>
          <name>18</name>
          <styleUrl>#ptStyle</styleUrl>
          <Point><coordinates>103.9107120,22.5363692,0</coordinates></Point>
        </Placemark>
        <Placemark>
          <name>19</name>
          <styleUrl>#ptStyle</styleUrl>
          <Point><coordinates>103.9096442,22.5379095,0</coordinates></Point>
        </Placemark>
        <Placemark>
          <name>20</name>
          <styleUrl>#ptStyle</styleUrl>
          <Point><coordinates>103.9094605,22.5382362,0</coordinates></Point>
        </Placemark>
        <Placemark>
          <name>21</name>
          <styleUrl>#ptStyle</styleUrl>
          <Point><coordinates>103.9092728,22.5386837,0</coordinates></Point>
        </Placemark>
        <Placemark>
          <name>22</name>
          <styleUrl>#ptStyle</styleUrl>
          <Point><coordinates>103.9084715,22.5413107,0</coordinates></Point>
        </Placemark>
        <Placemark>
          <name>23</name>
          <styleUrl>#ptStyle</styleUrl>
          <Point><coordinates>103.9083550,22.5415765,0</coordinates></Point>
        </Placemark>
      </Folder>
    </Folder>

    <Folder>
      <name>CCN Quang Kim số 2 (~62.24 ha)</name>
      <Placemark>
        <name>Ranh giới CCN Quang Kim 2</name>
        <description>Diện tích tính từ tọa độ: 62.24 ha</description>
        <styleUrl>#qk2Style</styleUrl>
        <Polygon>
          <tessellate>1</tessellate>
          <outerBoundaryIs>
            <LinearRing>
              <coordinates>103.9110665,22.5358601,0 103.9109708,22.5358794,0 103.9090999,22.5347803,0 103.9067668,22.5336857,0 103.9061633,22.5334028,0 103.9041328,22.5324586,0 103.9045401,22.5315655,0 103.9051732,22.5308266,0 103.9058052,22.5304012,0 103.9061771,22.5299957,0 103.9066662,22.5290941,0 103.9068365,22.5285799,0 103.9071464,22.5269973,0 103.9073801,22.5265266,0 103.9078124,22.5262261,0 103.9083077,22.5261463,0 103.9089779,22.5261806,0 103.9098435,22.5259046,0 103.9101361,22.5256783,0 103.9110322,22.5266407,0 103.9114300,22.5272323,0 103.9116009,22.5277195,0 103.9117855,22.5283977,0 103.9120494,22.5289740,0 103.9126013,22.5297999,0 103.9137306,22.5312787,0 103.9137014,22.5314379,0 103.9125932,22.5336389,0 103.9110665,22.5358601,0</coordinates>
            </LinearRing>
          </outerBoundaryIs>
        </Polygon>
      </Placemark>
      <Folder>
        <name>Điểm góc ranh QK2</name>
        <visibility>0</visibility>
        <Placemark>
          <name>1</name>
          <styleUrl>#ptStyle</styleUrl>
          <Point><coordinates>103.9110665,22.5358601,0</coordinates></Point>
        </Placemark>
        <Placemark>
          <name>2</name>
          <styleUrl>#ptStyle</styleUrl>
          <Point><coordinates>103.9109708,22.5358794,0</coordinates></Point>
        </Placemark>
        <Placemark>
          <name>3</name>
          <styleUrl>#ptStyle</styleUrl>
          <Point><coordinates>103.9090999,22.5347803,0</coordinates></Point>
        </Placemark>
        <Placemark>
          <name>4</name>
          <styleUrl>#ptStyle</styleUrl>
          <Point><coordinates>103.9067668,22.5336857,0</coordinates></Point>
        </Placemark>
        <Placemark>
          <name>5</name>
          <styleUrl>#ptStyle</styleUrl>
          <Point><coordinates>103.9061633,22.5334028,0</coordinates></Point>
        </Placemark>
        <Placemark>
          <name>6</name>
          <styleUrl>#ptStyle</styleUrl>
          <Point><coordinates>103.9041328,22.5324586,0</coordinates></Point>
        </Placemark>
        <Placemark>
          <name>7</name>
          <styleUrl>#ptStyle</styleUrl>
          <Point><coordinates>103.9045401,22.5315655,0</coordinates></Point>
        </Placemark>
        <Placemark>
          <name>8</name>
          <styleUrl>#ptStyle</styleUrl>
          <Point><coordinates>103.9051732,22.5308266,0</coordinates></Point>
        </Placemark>
        <Placemark>
          <name>9</name>
          <styleUrl>#ptStyle</styleUrl>
          <Point><coordinates>103.9058052,22.5304012,0</coordinates></Point>
        </Placemark>
        <Placemark>
          <name>10</name>
          <styleUrl>#ptStyle</styleUrl>
          <Point><coordinates>103.9061771,22.5299957,0</coordinates></Point>
        </Placemark>
        <Placemark>
          <name>11</name>
          <styleUrl>#ptStyle</styleUrl>
          <Point><coordinates>103.9066662,22.5290941,0</coordinates></Point>
        </Placemark>
        <Placemark>
          <name>12</name>
          <styleUrl>#ptStyle</styleUrl>
          <Point><coordinates>103.9068365,22.5285799,0</coordinates></Point>
        </Placemark>
        <Placemark>
          <name>13</name>
          <styleUrl>#ptStyle</styleUrl>
          <Point><coordinates>103.9071464,22.5269973,0</coordinates></Point>
        </Placemark>
        <Placemark>
          <name>14</name>
          <styleUrl>#ptStyle</styleUrl>
          <Point><coordinates>103.9073801,22.5265266,0</coordinates></Point>
        </Placemark>
        <Placemark>
          <name>15</name>
          <styleUrl>#ptStyle</styleUrl>
          <Point><coordinates>103.9078124,22.5262261,0</coordinates></Point>
        </Placemark>
        <Placemark>
          <name>16</name>
          <styleUrl>#ptStyle</styleUrl>
          <Point><coordinates>103.9083077,22.5261463,0</coordinates></Point>
        </Placemark>
        <Placemark>
          <name>17</name>
          <styleUrl>#ptStyle</styleUrl>
          <Point><coordinates>103.9089779,22.5261806,0</coordinates></Point>
        </Placemark>
        <Placemark>
          <name>18</name>
          <styleUrl>#ptStyle</styleUrl>
          <Point><coordinates>103.9098435,22.5259046,0</coordinates></Point>
        </Placemark>
        <Placemark>
          <name>19</name>
          <styleUrl>#ptStyle</styleUrl>
          <Point><coordinates>103.9101361,22.5256783,0</coordinates></Point>
        </Placemark>
        <Placemark>
          <name>20</name>
          <styleUrl>#ptStyle</styleUrl>
          <Point><coordinates>103.9110322,22.5266407,0</coordinates></Point>
        </Placemark>
        <Placemark>
          <name>21</name>
          <styleUrl>#ptStyle</styleUrl>
          <Point><coordinates>103.9114300,22.5272323,0</coordinates></Point>
        </Placemark>
        <Placemark>
          <name>22</name>
          <styleUrl>#ptStyle</styleUrl>
          <Point><coordinates>103.9116009,22.5277195,0</coordinates></Point>
        </Placemark>
        <Placemark>
          <name>23</name>
          <styleUrl>#ptStyle</styleUrl>
          <Point><coordinates>103.9117855,22.5283977,0</coordinates></Point>
        </Placemark>
        <Placemark>
          <name>24</name>
          <styleUrl>#ptStyle</styleUrl>
          <Point><coordinates>103.9120494,22.5289740,0</coordinates></Point>
        </Placemark>
        <Placemark>
          <name>25</name>
          <styleUrl>#ptStyle</styleUrl>
          <Point><coordinates>103.9126013,22.5297999,0</coordinates></Point>
        </Placemark>
        <Placemark>
          <name>26</name>
          <styleUrl>#ptStyle</styleUrl>
          <Point><coordinates>103.9137306,22.5312787,0</coordinates></Point>
        </Placemark>
        <Placemark>
          <name>27</name>
          <styleUrl>#ptStyle</styleUrl>
          <Point><coordinates>103.9137014,22.5314379,0</coordinates></Point>
        </Placemark>
        <Placemark>
          <name>28</name>
          <styleUrl>#ptStyle</styleUrl>
          <Point><coordinates>103.9125932,22.5336389,0</coordinates></Point>
        </Placemark>
      </Folder>
    </Folder>
  </Document>
</kml>
