<?xml version="1.0" encoding="UTF-8"?>
<kml xmlns="http://www.opengis.net/kml/2.2">
<Document>
  <name>Ranh giới Khu công nghiệp Cam Đường</name>
  <description>99 mốc M1-M99 theo Phụ lục Quyết định số 2548/QĐ-UBND ngày 23/7/2026 của Chủ tịch UBND tỉnh Lào Cai (hệ VN-2000, kinh tuyến trục 104°45', múi chiếu 3°, chuyển đổi sang WGS-84). Diện tích theo Quyết định: 196,30 ha.</description>
  <Placemark>
    <name>Khu công nghiệp Cam Đường (196,3 ha)</name>
    <Polygon><outerBoundaryIs><LinearRing><coordinates>104.0423984,22.4130971,0 104.0434336,22.412734,0 104.043924,22.4123033,0 104.0441896,22.4117468,0 104.0445116,22.4107075,0 104.0458361,22.4093296,0 104.0485266,22.40852,0 104.0483859,22.4079002,0 104.048595,22.4073561,0 104.0490882,22.4069913,0 104.0491233,22.4058571,0 104.0493071,22.4055312,0 104.0493575,22.4054764,0 104.0493521,22.4054128,0 104.0493865,22.4053819,0 104.0496425,22.4055829,0 104.0496038,22.4056115,0 104.0494438,22.4057972,0 104.0499181,22.4061631,0 104.0504248,22.4066315,0 104.051787,22.4082992,0 104.0519842,22.4081599,0 104.0529109,22.4092942,0 104.0533596,22.409,0 104.0514168,22.4066215,0 104.0505782,22.4057115,0 104.0497438,22.4050528,0 104.0495288,22.4049271,0 104.0513657,22.4031662,0 104.0522083,22.4027649,0 104.0543218,22.4026594,0 104.0544069,22.4028216,0 104.0543322,22.4030146,0 104.0546118,22.4032734,0 104.0548463,22.4033481,0 104.0551489,22.4030967,0 104.0553207,22.403113,0 104.0556137,22.4032721,0 104.055831,22.4034569,0 104.0559203,22.4037348,0 104.0560194,22.4038452,0 104.0563783,22.40384,0 104.0571053,22.4039571,0 104.0573641,22.4040306,0 104.0553064,22.4109833,0 104.0548231,22.412616,0 104.0546922,22.4130584,0 104.0544968,22.4136398,0 104.0519957,22.4171967,0 104.045348,22.4229532,0 104.0433375,22.4242608,0 104.0402753,22.4251072,0 104.0394875,22.4251545,0 104.03974,22.4249095,0 104.0397169,22.4233255,0 104.0401131,22.4223261,0 104.0413183,22.4211062,0 104.0422457,22.4205013,0 104.0423181,22.4201997,0 104.0422089,22.4199944,0 104.0427985,22.4193541,0 104.0430958,22.4194409,0 104.0433898,22.4194051,0 104.0436853,22.419231,0 104.0440113,22.4186955,0 104.0440396,22.4175941,0 104.044008,22.4173702,0 104.0439026,22.4170358,0 104.044138,22.416262,0 104.0442303,22.4161844,0 104.0442336,22.4160936,0 104.0441547,22.4160177,0 104.0438683,22.4156384,0 104.0436375,22.4152,0 104.0434553,22.4149581,0 104.0430226,22.4145403,0 104.042503,22.413863,0 104.0417722,22.412534,0 104.0415535,22.412178,0 104.0411044,22.4115209,0 104.0404813,22.4112319,0 104.0396696,22.4112916,0 104.0392442,22.4110616,0 104.0390217,22.4106205,0 104.0389743,22.410478,0 104.0389594,22.4103917,0 104.0388957,22.4103465,0 104.0388906,22.4103016,0 104.039279,22.4102636,0 104.0392924,22.4103077,0 104.0392409,22.4103702,0 104.0392524,22.4104362,0 104.0392766,22.4105093,0 104.0394991,22.4109505,0 104.0396473,22.4110306,0 104.040459,22.4109708,0 104.0413421,22.4113804,0 104.0417912,22.4120375,0 104.042023,22.412419,0 104.0423984,22.4130971,0</coordinates></LinearRing></outerBoundaryIs></Polygon>
  </Placemark>
</Document>
</kml>
